[{"OBJECT_NAME":"STARLINK-37064","OBJECT_ID":"2026-049R","EPOCH":"2026-03-31T19:29:47.731200","MEAN_MOTION":15.80894819,"ECCENTRICITY":0.0001323,"INCLINATION":97.2846,"RA_OF_ASC_NODE":111.1912,"ARG_OF_PERICENTER":95.2518,"MEAN_ANOMALY":264.8901,"EPHEMERIS_TYPE":0,"CLASSIFICATION_TYPE":"U","NORAD_CAT_ID":68157,"ELEMENT_SET_NO":999,"REV_AT_EPOCH":290,"BSTAR":0.0010921,"MEAN_MOTION_DOT":0.00215063,"MEAN_MOTION_DDOT":0},{"OBJECT_NAME":"STARLINK-37069","OBJECT_ID":"2026-049S","EPOCH":"2026-03-31T19:49:11.254080","MEAN_MOTION":15.75261549,"ECCENTRICITY":0.0001395,"INCLINATION":97.2837,"RA_OF_ASC_NODE":111.1732,"ARG_OF_PERICENTER":95.1681,"MEAN_ANOMALY":264.9743,"EPHEMERIS_TYPE":0,"CLASSIFICATION_TYPE":"U","NORAD_CAT_ID":68158,"ELEMENT_SET_NO":999,"REV_AT_EPOCH":290,"BSTAR":0.0017178,"MEAN_MOTION_DOT":0.00265016,"MEAN_MOTION_DDOT":0},{"OBJECT_NAME":"STARLINK-37053","OBJECT_ID":"2026-049T","EPOCH":"2026-03-31T19:23:18.181248","MEAN_MOTION":15.80898549,"ECCENTRICITY":0.000148,"INCLINATION":97.2849,"RA_OF_ASC_NODE":111.197,"ARG_OF_PERICENTER":130.8694,"MEAN_ANOMALY":229.2702,"EPHEMERIS_TYPE":0,"CLASSIFICATION_TYPE":"U","NORAD_CAT_ID":68159,"ELEMENT_SET_NO":999,"REV_AT_EPOCH":290,"BSTAR":0.0011491,"MEAN_MOTION_DOT":0.00226635,"MEAN_MOTION_DDOT":0},{"OBJECT_NAME":"STARLINK-36306","OBJECT_ID":"2026-049U","EPOCH":"2026-03-31T20:00:01.999008","MEAN_MOTION":15.75204677,"ECCENTRICITY":0.0001457,"INCLINATION":97.284,"RA_OF_ASC_NODE":111.1918,"ARG_OF_PERICENTER":99.7586,"MEAN_ANOMALY":325.0038,"EPHEMERIS_TYPE":0,"CLASSIFICATION_TYPE":"U","NORAD_CAT_ID":68160,"ELEMENT_SET_NO":999,"REV_AT_EPOCH":419,"BSTAR":0.00039583,"MEAN_MOTION_DOT":0.0005936,"MEAN_MOTION_DDOT":0},{"OBJECT_NAME":"STARLINK-37057","OBJECT_ID":"2026-049V","EPOCH":"2026-03-31T19:25:28.009344","MEAN_MOTION":15.80901521,"ECCENTRICITY":0.0001204,"INCLINATION":97.2849,"RA_OF_ASC_NODE":111.1951,"ARG_OF_PERICENTER":109.3831,"MEAN_ANOMALY":250.7568,"EPHEMERIS_TYPE":0,"CLASSIFICATION_TYPE":"U","NORAD_CAT_ID":68161,"ELEMENT_SET_NO":999,"REV_AT_EPOCH":290,"BSTAR":0.0011552,"MEAN_MOTION_DOT":0.00227894,"MEAN_MOTION_DDOT":0},{"OBJECT_NAME":"STARLINK-37013","OBJECT_ID":"2026-049W","EPOCH":"2026-03-31T19:17:53.522016","MEAN_MOTION":15.80881625,"ECCENTRICITY":0.0001051,"INCLINATION":97.2856,"RA_OF_ASC_NODE":111.2017,"ARG_OF_PERICENTER":85.3743,"MEAN_ANOMALY":274.7645,"EPHEMERIS_TYPE":0,"CLASSIFICATION_TYPE":"U","NORAD_CAT_ID":68162,"ELEMENT_SET_NO":999,"REV_AT_EPOCH":290,"BSTAR":0.00086215,"MEAN_MOTION_DOT":0.00168736,"MEAN_MOTION_DDOT":0},{"OBJECT_NAME":"STARLINK-36958","OBJECT_ID":"2026-049X","EPOCH":"2026-03-31T19:20:03.374304","MEAN_MOTION":15.8089143,"ECCENTRICITY":0.0001115,"INCLINATION":97.2851,"RA_OF_ASC_NODE":111.2002,"ARG_OF_PERICENTER":115.0251,"MEAN_ANOMALY":245.1133,"EPHEMERIS_TYPE":0,"CLASSIFICATION_TYPE":"U","NORAD_CAT_ID":68163,"ELEMENT_SET_NO":999,"REV_AT_EPOCH":290,"BSTAR":0.0011357,"MEAN_MOTION_DOT":0.00223849,"MEAN_MOTION_DDOT":0},{"OBJECT_NAME":"STARLINK-37002","OBJECT_ID":"2026-049Y","EPOCH":"2026-03-31T19:21:08.373024","MEAN_MOTION":15.80894988,"ECCENTRICITY":0.0001069,"INCLINATION":97.2851,"RA_OF_ASC_NODE":111.1991,"ARG_OF_PERICENTER":102.3834,"MEAN_ANOMALY":257.7554,"EPHEMERIS_TYPE":0,"CLASSIFICATION_TYPE":"U","NORAD_CAT_ID":68164,"ELEMENT_SET_NO":999,"REV_AT_EPOCH":290,"BSTAR":0.0012277,"MEAN_MOTION_DOT":0.00242545,"MEAN_MOTION_DDOT":0},{"OBJECT_NAME":"STARLINK-36971","OBJECT_ID":"2026-049Z","EPOCH":"2026-03-31T20:00:01.999008","MEAN_MOTION":15.75193382,"ECCENTRICITY":8.53e-5,"INCLINATION":97.2845,"RA_OF_ASC_NODE":111.2261,"ARG_OF_PERICENTER":87.8585,"MEAN_ANOMALY":56.9822,"EPHEMERIS_TYPE":0,"CLASSIFICATION_TYPE":"U","NORAD_CAT_ID":68165,"ELEMENT_SET_NO":999,"REV_AT_EPOCH":418,"BSTAR":-0.00025606,"MEAN_MOTION_DOT":-0.00038156,"MEAN_MOTION_DDOT":0},{"OBJECT_NAME":"STARLINK-36273","OBJECT_ID":"2026-049AA","EPOCH":"2026-03-31T19:42:34.870752","MEAN_MOTION":15.75264623,"ECCENTRICITY":0.0001301,"INCLINATION":97.2844,"RA_OF_ASC_NODE":111.1796,"ARG_OF_PERICENTER":89.1587,"MEAN_ANOMALY":270.9827,"EPHEMERIS_TYPE":0,"CLASSIFICATION_TYPE":"U","NORAD_CAT_ID":68166,"ELEMENT_SET_NO":999,"REV_AT_EPOCH":290,"BSTAR":0.001693,"MEAN_MOTION_DOT":0.00261114,"MEAN_MOTION_DDOT":0},{"OBJECT_NAME":"STARLINK-36969","OBJECT_ID":"2026-050A","EPOCH":"2026-03-31T15:01:34.582080","MEAN_MOTION":15.80898419,"ECCENTRICITY":0.0001191,"INCLINATION":53.1585,"RA_OF_ASC_NODE":171.906,"ARG_OF_PERICENTER":86.6846,"MEAN_ANOMALY":273.4313,"EPHEMERIS_TYPE":0,"CLASSIFICATION_TYPE":"U","NORAD_CAT_ID":68167,"ELEMENT_SET_NO":999,"REV_AT_EPOCH":394,"BSTAR":0.00079336,"MEAN_MOTION_DOT":0.00158986,"MEAN_MOTION_DDOT":0},{"OBJECT_NAME":"STARLINK-36984","OBJECT_ID":"2026-050B","EPOCH":"2026-03-31T15:00:29.672352","MEAN_MOTION":15.80963271,"ECCENTRICITY":0.0001311,"INCLINATION":53.1587,"RA_OF_ASC_NODE":171.901,"ARG_OF_PERICENTER":82.8445,"MEAN_ANOMALY":277.2727,"EPHEMERIS_TYPE":0,"CLASSIFICATION_TYPE":"U","NORAD_CAT_ID":68168,"ELEMENT_SET_NO":999,"REV_AT_EPOCH":394,"BSTAR":0.0016127,"MEAN_MOTION_DOT":0.00331488,"MEAN_MOTION_DDOT":0},{"OBJECT_NAME":"STARLINK-37077","OBJECT_ID":"2026-050C","EPOCH":"2026-03-31T14:59:24.977760","MEAN_MOTION":15.8095257,"ECCENTRICITY":0.0001542,"INCLINATION":53.1588,"RA_OF_ASC_NODE":171.896,"ARG_OF_PERICENTER":53.6031,"MEAN_ANOMALY":306.5134,"EPHEMERIS_TYPE":0,"CLASSIFICATION_TYPE":"U","NORAD_CAT_ID":68169,"ELEMENT_SET_NO":999,"REV_AT_EPOCH":394,"BSTAR":0.0015538,"MEAN_MOTION_DOT":0.00318736,"MEAN_MOTION_DDOT":0},{"OBJECT_NAME":"STARLINK-37003","OBJECT_ID":"2026-050D","EPOCH":"2026-03-31T14:58:20.036928","MEAN_MOTION":15.80957405,"ECCENTRICITY":0.0001203,"INCLINATION":53.1585,"RA_OF_ASC_NODE":171.8909,"ARG_OF_PERICENTER":89.7463,"MEAN_ANOMALY":270.3698,"EPHEMERIS_TYPE":0,"CLASSIFICATION_TYPE":"U","NORAD_CAT_ID":68170,"ELEMENT_SET_NO":999,"REV_AT_EPOCH":394,"BSTAR":0.0015681,"MEAN_MOTION_DOT":0.00321849,"MEAN_MOTION_DDOT":0},{"OBJECT_NAME":"STARLINK-37034","OBJECT_ID":"2026-050E","EPOCH":"2026-03-31T14:57:15.313824","MEAN_MOTION":15.80899229,"ECCENTRICITY":0.0001341,"INCLINATION":53.159,"RA_OF_ASC_NODE":171.8852,"ARG_OF_PERICENTER":75.101,"MEAN_ANOMALY":285.0162,"EPHEMERIS_TYPE":0,"CLASSIFICATION_TYPE":"U","NORAD_CAT_ID":68171,"ELEMENT_SET_NO":999,"REV_AT_EPOCH":394,"BSTAR":0.00077925,"MEAN_MOTION_DOT":0.00156099,"MEAN_MOTION_DDOT":0},{"OBJECT_NAME":"STARLINK-37031","OBJECT_ID":"2026-050F","EPOCH":"2026-03-31T14:56:10.444704","MEAN_MOTION":15.80963335,"ECCENTRICITY":0.0001312,"INCLINATION":53.1585,"RA_OF_ASC_NODE":171.8803,"ARG_OF_PERICENTER":92.4088,"MEAN_ANOMALY":267.7084,"EPHEMERIS_TYPE":0,"CLASSIFICATION_TYPE":"U","NORAD_CAT_ID":68172,"ELEMENT_SET_NO":999,"REV_AT_EPOCH":394,"BSTAR":0.0015864,"MEAN_MOTION_DOT":0.00325855,"MEAN_MOTION_DDOT":0},{"OBJECT_NAME":"STARLINK-37076","OBJECT_ID":"2026-050G","EPOCH":"2026-03-31T14:55:05.405376","MEAN_MOTION":15.8098556,"ECCENTRICITY":0.0001434,"INCLINATION":53.1586,"RA_OF_ASC_NODE":171.8757,"ARG_OF_PERICENTER":54.5679,"MEAN_ANOMALY":305.5477,"EPHEMERIS_TYPE":0,"CLASSIFICATION_TYPE":"U","NORAD_CAT_ID":68173,"ELEMENT_SET_NO":999,"REV_AT_EPOCH":394,"BSTAR":0.0018248,"MEAN_MOTION_DOT":0.00377615,"MEAN_MOTION_DDOT":0},{"OBJECT_NAME":"STARLINK-37078","OBJECT_ID":"2026-050H","EPOCH":"2026-03-31T13:22:58.614240","MEAN_MOTION":15.80930936,"ECCENTRICITY":0.0001258,"INCLINATION":53.1587,"RA_OF_ASC_NODE":172.1876,"ARG_OF_PERICENTER":73.2482,"MEAN_ANOMALY":286.8679,"EPHEMERIS_TYPE":0,"CLASSIFICATION_TYPE":"U","NORAD_CAT_ID":68174,"ELEMENT_SET_NO":999,"REV_AT_EPOCH":393,"BSTAR":0.0013277,"MEAN_MOTION_DOT":0.0027044,"MEAN_MOTION_DDOT":0},{"OBJECT_NAME":"STARLINK-36886","OBJECT_ID":"2026-050J","EPOCH":"2026-03-31T14:52:55.512480","MEAN_MOTION":15.80891407,"ECCENTRICITY":0.0001016,"INCLINATION":53.159,"RA_OF_ASC_NODE":171.8652,"ARG_OF_PERICENTER":65.4028,"MEAN_ANOMALY":294.7101,"EPHEMERIS_TYPE":0,"CLASSIFICATION_TYPE":"U","NORAD_CAT_ID":68175,"ELEMENT_SET_NO":999,"REV_AT_EPOCH":394,"BSTAR":0.00052,"MEAN_MOTION_DOT":0.00103254,"MEAN_MOTION_DDOT":0},{"OBJECT_NAME":"STARLINK-36905","OBJECT_ID":"2026-050K","EPOCH":"2026-03-31T14:51:51.033888","MEAN_MOTION":15.80953726,"ECCENTRICITY":0.0001139,"INCLINATION":53.1587,"RA_OF_ASC_NODE":171.8606,"ARG_OF_PERICENTER":78.7227,"MEAN_ANOMALY":281.3924,"EPHEMERIS_TYPE":0,"CLASSIFICATION_TYPE":"U","NORAD_CAT_ID":68176,"ELEMENT_SET_NO":999,"REV_AT_EPOCH":394,"BSTAR":0.0014283,"MEAN_MOTION_DOT":0.00292027,"MEAN_MOTION_DDOT":0},{"OBJECT_NAME":"STARLINK-36668","OBJECT_ID":"2026-050L","EPOCH":"2026-03-31T14:50:46.353984","MEAN_MOTION":15.80913817,"ECCENTRICITY":0.0001254,"INCLINATION":53.1592,"RA_OF_ASC_NODE":171.855,"ARG_OF_PERICENTER":60.4233,"MEAN_ANOMALY":299.6914,"EPHEMERIS_TYPE":0,"CLASSIFICATION_TYPE":"U","NORAD_CAT_ID":68177,"ELEMENT_SET_NO":999,"REV_AT_EPOCH":394,"BSTAR":0.00099035,"MEAN_MOTION_DOT":0.00199724,"MEAN_MOTION_DDOT":0},{"OBJECT_NAME":"STARLINK-36677","OBJECT_ID":"2026-050M","EPOCH":"2026-03-31T14:49:41.625696","MEAN_MOTION":15.80935981,"ECCENTRICITY":0.0001438,"INCLINATION":53.1593,"RA_OF_ASC_NODE":171.8495,"ARG_OF_PERICENTER":86.5702,"MEAN_ANOMALY":273.5485,"EPHEMERIS_TYPE":0,"CLASSIFICATION_TYPE":"U","NORAD_CAT_ID":68178,"ELEMENT_SET_NO":999,"REV_AT_EPOCH":394,"BSTAR":0.0013262,"MEAN_MOTION_DOT":0.00270189,"MEAN_MOTION_DDOT":0},{"OBJECT_NAME":"STARLINK-37052","OBJECT_ID":"2026-050N","EPOCH":"2026-03-31T16:19:38.688096","MEAN_MOTION":15.80955495,"ECCENTRICITY":0.0001035,"INCLINATION":53.1588,"RA_OF_ASC_NODE":171.5278,"ARG_OF_PERICENTER":89.7421,"MEAN_ANOMALY":270.3721,"EPHEMERIS_TYPE":0,"CLASSIFICATION_TYPE":"U","NORAD_CAT_ID":68179,"ELEMENT_SET_NO":999,"REV_AT_EPOCH":395,"BSTAR":0.0012833,"MEAN_MOTION_DOT":0.00261401,"MEAN_MOTION_DDOT":0}]
